NORAD_CAT_ID,OBJECT_NAME,OBJECT_TYPE,EPOCH,MEAN_MOTION,ECCENTRICITY,INCLINATION,RA_OF_ASC_NODE,ARG_OF_PERICENTER,MEAN_ANOMALY,BSTAR,MEAN_MOTION_DOT,MEAN_MOTION_DDOT,TLE_LINE0,TLE_LINE1,TLE_LINE2,SEMIMAJOR_AXIS,PERIOD,APOGEE,PERIGEE,DECAYED
54076.0,STARLINK-5201,PAYLOAD,2024-03-28 07:05:57,15.08854063,0.0002077,53.2143,297.2673,83.9483,276.1746,0.00024265,3.577e-05,0.0,0 STARLINK-5201,1 54076U 22136AB  24088.29580884  .00003577  00000-0  24265-3 0  9996,2 54076  53.2143 297.2673 0002077  83.9483 276.1746 15.08854063 79930,6917.837,95.437,541.139,538.266,0.0
54076.0,STARLINK-5201,PAYLOAD,2024-03-28 21:24:26,15.08841863,0.0001505,53.215,294.5922,90.8019,269.3146,-7.8538e-06,-4.13e-06,0.0,0 STARLINK-5201,1 54076U 22136AB  24088.89196985 -.00000413  00000-0 -78538-5 0  9999,2 54076  53.2150 294.5922 0001505  90.8019 269.3146 15.08841863 79541,6917.875,95.437,540.781,538.699,0.0
54076.0,STARLINK-5201,PAYLOAD,2024-03-28 22:59:49,15.08843187,0.0001512,53.2143,294.2937,90.4977,269.6189,5.4501e-05,5.8e-06,0.0,0 STARLINK-5201,1 54076U 22136AB  24088.95820929  .00000580  00000-0  54501-4 0  9994,2 54076  53.2143 294.2937 0001512  90.4977 269.6189 15.08843187 80030,6917.871,95.437,540.782,538.69,0.0
54076.0,STARLINK-5201,PAYLOAD,2024-03-29 13:18:17,15.08838542,0.00015,53.2155,291.6147,89.9229,270.1935,0.00019344,2.792e-05,0.0,0 STARLINK-5201,1 54076U 22136AB  24089.55437285  .00002792  00000-0  19344-3 0  9992,2 54076  53.2155 291.6147 0001500  89.9229 270.1935 15.08838542 79647,6917.885,95.438,540.788,538.712,0.0
54076.0,STARLINK-5201,PAYLOAD,2024-03-29 19:39:50,15.08848935,0.0001437,53.2144,290.4255,89.5025,270.6131,0.00037213,5.641e-05,0.0,0 STARLINK-5201,1 54076U 22136AB  24089.81933038  .00005641  00000-0  37213-3 0  9999,2 54076  53.2144 290.4255 0001437  89.5025 270.6131 15.08848935 79685,6917.853,95.437,540.712,538.724,0.0
54076.0,STARLINK-5201,PAYLOAD,2024-03-30 06:47:32,15.08844323,0.0001437,53.214,288.3457,81.6339,278.4816,0.00033627,5.068e-05,0.0,0 STARLINK-5201,1 54076U 22136AB  24090.28301251  .00005068  00000-0  33627-3 0  9996,2 54076  53.2140 288.3457 0001437  81.6339 278.4816 15.08844323 80238,6917.867,95.437,540.726,538.738,0.0
54076.0,STARLINK-5201,PAYLOAD,2024-03-30 19:30:37,15.08841524,0.000145,53.2151,285.9671,80.4501,279.6654,0.00020233,2.934e-05,0.0,0 STARLINK-5201,1 54076U 22136AB  24090.81293371  .00002934  00000-0  20233-3 0  9996,2 54076  53.2151 285.9671 0001450  80.4501 279.6654 15.08841524 79831,6917.876,95.437,540.744,538.738,0.0
54076.0,STARLINK-5201,PAYLOAD,2024-03-31 12:59:51,15.08843145,0.0001501,53.2141,282.695,84.0349,276.0814,0.00014516,2.023e-05,0.0,0 STARLINK-5201,1 54076U 22136AB  24091.54157308  .00002023  00000-0  14516-3 0  9992,2 54076  53.2141 282.6950 0001501  84.0349 276.0814 15.08843145 79943,6917.871,95.437,540.774,538.697,0.0
54076.0,STARLINK-5201,PAYLOAD,2024-03-31 19:21:24,15.08848144,0.0001409,53.2149,281.5047,90.6165,269.4988,0.00018435,2.648e-05,0.0,0 STARLINK-5201,1 54076U 22136AB  24091.80652960  .00002648  00000-0  18435-3 0  9992,2 54076  53.2149 281.5047 0001409  90.6165 269.4988 15.08848144 79988,6917.855,95.437,540.695,538.746,0.0
54076.0,STARLINK-5201,PAYLOAD,2024-04-01 12:50:39,15.0883826,0.000125,53.215,278.236,83.3764,276.737,9.8298e-05,1.277e-05,0.0,0 STARLINK-5201,1 54076U 22136AB  24092.53517519  .00001277  00000-0  98298-4 0  9996,2 54076  53.2150 278.2360 0001250  83.3764 276.7370 15.08838260 80570,6917.886,95.438,540.615,538.886,0.0
54076.0,STARLINK-5201,PAYLOAD,2024-04-02 12:41:26,15.08838459,0.0001419,53.2175,273.7775,100.5519,259.5633,2.943e-05,1.8e-06,0.0,0 STARLINK-5201,1 54076U 22136AB  24093.52877521  .00000180  00000-0  29430-4 0  9992,2 54076  53.2175 273.7775 0001419 100.5519 259.5633 15.08838459 80249,6917.885,95.438,540.732,538.768,0.0
54076.0,STARLINK-5201,PAYLOAD,2024-04-02 19:02:58,15.08840302,0.0001354,53.2175,272.5879,99.4098,260.7047,4.9746e-05,5.04e-06,0.0,0 STARLINK-5201,1 54076U 22136AB  24093.79373505  .00000504  00000-0  49746-4 0  9996,2 54076  53.2175 272.5879 0001354  99.4098 260.7047 15.08840302 80767,6917.879,95.438,540.681,538.808,0.0
54076.0,STARLINK-5201,PAYLOAD,2024-04-02 22:13:44,15.08840162,0.0001381,53.2173,271.9931,99.3493,260.7655,5.2662e-05,5.5e-06,0.0,0 STARLINK-5201,1 54076U 22136AB  24093.92621520  .00000550  00000-0  52662-4 0  9996,2 54076  53.2173 271.9931 0001381  99.3493 260.7655 15.08840162 80304,6917.88,95.438,540.7,538.79,0.0
54076.0,STARLINK-5201,PAYLOAD,2024-04-03 04:35:17,15.08840263,0.0001254,53.2167,270.8025,93.5172,266.5964,3.946e-05,3.4e-06,0.0,0 STARLINK-5201,1 54076U 22136AB  24094.19117474  .00000340  00000-0  39460-4 0  9992,2 54076  53.2167 270.8025 0001254  93.5172 266.5964 15.08840263 80341,6917.88,95.438,540.612,538.877,0.0
54076.0,STARLINK-5201,PAYLOAD,2024-04-03 20:29:08,15.08845793,0.0001282,53.2161,267.8274,92.058,268.0559,0.00015535,2.186e-05,0.0,0 STARLINK-5201,1 54076U 22136AB  24094.85357294  .00002186  00000-0  15535-3 0  9997,2 54076  53.2161 267.8274 0001282  92.0580 268.0559 15.08845793 80929,6917.863,95.437,540.615,538.841,0.0
54076.0,STARLINK-5201,PAYLOAD,2024-04-03 22:04:31,15.0884671,0.0001276,53.216,267.5299,91.9059,268.2079,0.0001674,2.378e-05,0.0,0 STARLINK-5201,1 54076U 22136AB  24094.91981243  .00002378  00000-0  16740-3 0  9993,2 54076  53.2160 267.5299 0001276  91.9059 268.2079 15.08846710 80451,6917.86,95.437,540.608,538.842,0.0
54076.0,STARLINK-5201,PAYLOAD,2024-04-04 10:47:37,15.08839604,0.0001417,53.2165,265.1497,86.6763,273.4391,8.0989e-05,1.001e-05,0.0,0 STARLINK-5201,1 54076U 22136AB  24095.44973660  .00001001  00000-0  80989-4 0  9995,2 54076  53.2165 265.1497 0001417  86.6763 273.4391 15.08839604 81012,6917.882,95.438,540.727,538.766,0.0
54076.0,STARLINK-5201,PAYLOAD,2024-04-04 18:44:32,15.08842935,0.0001396,53.2163,263.663,89.1612,270.954,0.00011968,1.617e-05,0.0,0 STARLINK-5201,1 54076U 22136AB  24095.78093511  .00001617  00000-0  11968-3 0  9993,2 54076  53.2163 263.6630 0001396  89.1612 270.9540 15.08842935 80589,6917.871,95.437,540.702,538.771,0.0
54076.0,STARLINK-5201,PAYLOAD,2024-04-05 10:38:24,15.08842756,0.0001316,53.2155,260.6892,85.4709,274.6434,0.00011889,1.605e-05,0.0,0 STARLINK-5201,1 54076U 22136AB  24096.44333465  .00001605  00000-0  11889-3 0  9991,2 54076  53.2155 260.6892 0001316  85.4709 274.6434 15.08842756 80680,6917.872,95.437,540.647,538.827,0.0
54076.0,STARLINK-5201,PAYLOAD,2024-04-05 20:10:42,15.08850268,0.0001308,53.2156,258.9052,87.1015,273.0127,0.00013829,1.914e-05,0.0,0 STARLINK-5201,1 54076U 22136AB  24096.84076990  .00001914  00000-0  13829-3 0  9991,2 54076  53.2156 258.9052 0001308  87.1015 273.0127 15.08850268 81229,6917.849,95.437,540.619,538.809,0.0
54076.0,STARLINK-5201,PAYLOAD,2024-04-06 04:07:38,15.08843913,0.0001283,53.2154,257.4198,88.5007,271.6132,5.8148e-05,6.38e-06,0.0,0 STARLINK-5201,1 54076U 22136AB  24097.17197273  .00000638  00000-0  58148-4 0  9992,2 54076  53.2154 257.4198 0001283  88.5007 271.6132 15.08843913 81274,6917.868,95.437,540.621,538.846,0.0
54076.0,STARLINK-5201,PAYLOAD,2024-04-06 10:29:11,15.08837126,0.0001345,53.215,256.2291,91.2373,268.8773,3.0513e-05,1.98e-06,0.0,0 STARLINK-5201,1 54076U 22136AB  24097.43693698  .00000198  00000-0  30513-4 0  9990,2 54076  53.2150 256.2291 0001345  91.2373 268.8773 15.08837126 81310,6917.889,95.438,540.685,538.824,0.0
54076.0,STARLINK-5201,PAYLOAD,2024-04-06 20:01:30,15.08837492,0.0001527,53.2156,254.4454,88.43,271.6867,1.0407e-05,-1.22e-06,0.0,0 STARLINK-5201,1 54076U 22136AB  24097.83437830 -.00000122  00000-0  10407-4 0  9996,2 54076  53.2156 254.4454 0001527  88.4300 271.6867 15.08837492 80891,6917.888,95.438,540.809,538.697,0.0
54076.0,STARLINK-5201,PAYLOAD,2024-04-07 10:19:58,15.08837631,0.0001544,53.2146,251.768,91.322,268.7949,2.1856e-05,6e-07,0.0,0 STARLINK-5201,1 54076U 22136AB  24098.43053984  .00000060  00000-0  21856-4 0  9997,2 54076  53.2146 251.7680 0001544  91.3220 268.7949 15.08837631 80987,6917.888,95.438,540.821,538.685,0.0
54076.0,STARLINK-5201,PAYLOAD,2024-04-07 19:52:17,15.08845886,0.0001381,53.2159,249.9833,95.832,264.283,3.8104e-05,3.19e-06,0.0,0 STARLINK-5201,1 54076U 22136AB  24098.82797524  .00000319  00000-0  38104-4 0  9996,2 54076  53.2159 249.9833 0001381  95.8320 264.2830 15.08845886 81521,6917.862,95.437,540.683,538.772,0.0
54076.0,STARLINK-5201,PAYLOAD,2024-04-08 10:10:45,15.0883261,0.0001562,53.215,247.3069,102.3208,257.7959,0.00022394,3.277e-05,0.0,0 STARLINK-5201,1 54076U 22136AB  24099.42414140  .00003277  00000-0  22394-3 0  9992,2 54076  53.2150 247.3069 0001562 102.3208 257.7959 15.08832610 81615,6917.903,95.438,540.849,538.687,0.0
54076.0,STARLINK-5201,PAYLOAD,2024-04-08 16:32:18,15.08840787,0.0001551,53.2142,246.1184,97.0787,263.0382,0.00025926,3.841e-05,0.0,0 STARLINK-5201,1 54076U 22136AB  24099.68910044  .00003841  00000-0  25926-3 0  9995,2 54076  53.2142 246.1184 0001551  97.0787 263.0382 15.08840787 81176,6917.878,95.438,540.816,538.67,0.0
54076.0,STARLINK-5201,PAYLOAD,2024-04-09 08:26:09,15.08840959,0.0001499,53.2145,243.1444,96.3949,263.7214,0.00010921,1.451e-05,0.0,0 STARLINK-5201,1 54076U 22136AB  24100.35149930  .00001451  00000-0  10921-3 0  9994,2 54076  53.2145 243.1444 0001499  96.3949 263.7214 15.08840959 81271,6917.877,95.437,540.779,538.705,0.0
54076.0,STARLINK-5201,PAYLOAD,2024-04-09 16:23:05,15.08840241,0.0001495,53.2184,241.6615,93.2137,266.9026,0.00014015,1.943e-05,0.0,0 STARLINK-5201,1 54076U 22136AB  24100.68269980  .00001943  00000-0  14015-3 0  9992,2 54076  53.2184 241.6615 0001495  93.2137 266.9026 15.08840241 81807,6917.88,95.438,540.779,538.71,0.0
54076.0,STARLINK-5201,PAYLOAD,2024-04-10 01:55:23,15.08854833,0.0001252,53.2139,239.8761,97.6615,262.452,-0.00011111,-2.057e-05,0.0,0 STARLINK-5201,1 54076U 22136AB  24101.08013293 -.00002057  00000-0 -11111-3 0  9994,2 54076  53.2139 239.8761 0001252  97.6615 262.4520 15.08854833 81866,6917.835,95.437,540.566,538.834,0.0
